[{"OBJECT_NAME":"STARLINK-30556","OBJECT_ID":"2023-156D","EPOCH":"2026-03-09T06:02:50.388576","MEAN_MOTION":15.30189725,"ECCENTRICITY":0.0001273,"INCLINATION":53.1604,"RA_OF_ASC_NODE":90.4239,"ARG_OF_PERICENTER":102.6624,"MEAN_ANOMALY":257.452,"EPHEMERIS_TYPE":0,"CLASSIFICATION_TYPE":"U","NORAD_CAT_ID":58031,"ELEMENT_SET_NO":999,"REV_AT_EPOCH":13609,"BSTAR":-6.9054e-6,"MEAN_MOTION_DOT":-5.64e-6,"MEAN_MOTION_DDOT":0},{"OBJECT_NAME":"GEOSCAN 2 (RS92S2)","OBJECT_ID":"2025-155Q","EPOCH":"2026-03-09T23:01:48.939744","MEAN_MOTION":15.28709337,"ECCENTRICITY":0.00085277,"INCLINATION":97.4463,"RA_OF_ASC_NODE":37.5259,"ARG_OF_PERICENTER":140.9505,"MEAN_ANOMALY":219.2352,"EPHEMERIS_TYPE":0,"CLASSIFICATION_TYPE":"U","NORAD_CAT_ID":64890,"ELEMENT_SET_NO":999,"REV_AT_EPOCH":6561,"BSTAR":0.00051551761,"MEAN_MOTION_DOT":0.00014341,"MEAN_MOTION_DDOT":0}]
